postcode,city,state
01000,Kangar,PLS
01007,Kangar,PLS
01009,Kangar,PLS
01500,Kangar,PLS
01502,Kangar,PLS
01503,Kangar,PLS
01504,Kangar,PLS
01505,Kangar,PLS
01506,Kangar,PLS
01508,Kangar,PLS
01512,Kangar,PLS
01514,Kangar,PLS
01516,Kangar,PLS
01517,Kangar,PLS
01518,Kangar,PLS
01524,Kangar,PLS
01529,Kangar,PLS
01532,Kangar,PLS
01538,Kangar,PLS
01540,Kangar,PLS
01546,Kangar,PLS
01550,Kangar,PLS
01551,Kangar,PLS
01556,Kangar,PLS
01560,Kangar,PLS
01564,Kangar,PLS
01570,Kangar,PLS
01572,Kangar,PLS
01576,Kangar,PLS
01578,Kangar,PLS
01582,Kangar,PLS
01586,Kangar,PLS
01590,Kangar,PLS
01592,Kangar,PLS
01594,Kangar,PLS
01596,Kangar,PLS
01598,Kangar,PLS
01600,Kangar,PLS
01604,Kangar,PLS
01606,Kangar,PLS
01608,Kangar,PLS
01609,Kangar,PLS
01610,Kangar,PLS
01612,Kangar,PLS
01614,Kangar,PLS
01620,Kangar,PLS
01622,Kangar,PLS
01626,Kangar,PLS
01628,Kangar,PLS
01630,Kangar,PLS
01632,Kangar,PLS
01634,Kangar,PLS
01644,Kangar,PLS
01646,Kangar,PLS
01648,Kangar,PLS
01660,Kangar,PLS
01664,Kangar,PLS
01670,Kangar,PLS
01672,Kangar,PLS
01673,Kangar,PLS
01674,Kangar,PLS
01676,Kangar,PLS
01680,Kangar,PLS
01694,Kangar,PLS
02000,Kuala Perlis,PLS
02100,Padang Besar,PLS
02200,Kaki Bukit,PLS
02400,Kangar,PLS
02450,Kangar,PLS
02500,Kangar,PLS
02600,Arau,PLS
02607,Arau,PLS
02609,Arau,PLS
02700,Simpang Ampat,PLS
02707,Simpang Ampat,PLS
02709,Simpang Ampat,PLS
02800,Simpang Ampat,PLS
05000,Alor Setar,KDH
05050,Alor Setar,KDH
05100,Alor Setar,KDH
05150,Alor Setar,KDH
05200,Alor Setar,KDH
05250,Alor Setar,KDH
05300,Alor Setar,KDH
05350,Alor Setar,KDH
05400,Alor Setar,KDH
05460,Alor Setar,KDH
05500,Alor Setar,KDH
05502,Alor Setar,KDH
05503,Alor Setar,KDH
05504,Alor Setar,KDH
05505,Alor Setar,KDH
05506,Alor Setar,KDH
05508,Alor Setar,KDH
05512,Alor Setar,KDH
05514,Alor Setar,KDH
05516,Alor Setar,KDH
05517,Alor Setar,KDH
05518,Alor Setar,KDH
05520,Alor Setar,KDH
05532,Alor Setar,KDH
05534,Alor Setar,KDH
05536,Alor Setar,KDH
05538,Alor Setar,KDH
05550,Alor Setar,KDH
05551,Alor Setar,KDH
05552,Alor Setar,KDH
05556,Alor Setar,KDH
05558,Alor Setar,KDH
05560,Alor Setar,KDH
05564,Alor Setar,KDH
05576,Alor Setar,KDH
05578,Alor Setar,KDH
05580,Alor Setar,KDH
05582,Alor Setar,KDH
05586,Alor Setar,KDH
05590,Alor Setar,KDH
05592,Alor Setar,KDH
05594,Alor Setar,KDH
05600,Alor Setar,KDH
05604,Alor Setar,KDH
05610,Alor Setar,KDH
05612,Alor Setar,KDH
05614,Alor Setar,KDH
05620,Alor Setar,KDH
05621,Alor Setar,KDH
05622,Alor Setar,KDH
05626,Alor Setar,KDH
05628,Alor Setar,KDH
05630,Alor Setar,KDH
05632,Alor Setar,KDH
05644,Alor Setar,KDH
05660,Alor Setar,KDH
05661,Alor Setar,KDH
05664,Alor Setar,KDH
05670,Alor Setar,KDH
05672,Alor Setar,KDH
05673,Alor Setar,KDH
05674,Alor Setar,KDH
05675,Alor Setar,KDH
05676,Alor Setar,KDH
05680,Alor Setar,KDH
05690,Alor Setar,KDH
05696,Alor Setar,KDH
05700,Alor Setar,KDH
05710,Alor Setar,KDH
05720,Alor Setar,KDH
05990,Alor Setar,KDH
06000,Jitra,KDH
06007,Jitra,KDH
06009,Jitra,KDH
06010,Changloon,KDH
06050,Bukit Kayu Hitam,KDH
06100,Kodiang,KDH
06150,Ayer Hitam,KDH
06200,Kepala Batas,KDH
06207,Kepala Batas,KDH
06209,Kepala Batas,KDH
06250,Alor Setar,KDH
06300,Kuala Nerang,KDH
06350,Pokok Sena,KDH
06400,Pokok Sena,KDH
06500,Langgar,KDH
06507,Langgar,KDH
06509,Alor Setar,KDH
06550,Alor Setar,KDH
06570,Alor Setar,KDH
06600,Kuala Kedah,KDH
06650,Simpang Empat,KDH
06660,Alor Setar,KDH
06700,Pendang,KDH
06707,Pendang,KDH
06709,Pendang,KDH
06710,Pendang,KDH
06720,Pendang,KDH
06750,Pendang,KDH
06760,Pokok Sena,KDH
06800,Kota Sarang Semut,KDH
06900,Yan,KDH
06910,Yan,KDH
07000,Langkawi,KDH
07007,Langkawi,KDH
07009,Langkawi,KDH
08000,Sungai Petani,KDH
08007,Sungai Petani,KDH
08009,Sungai Petani,KDH
08010,Sungai Petani,KDH
08100,Bedong,KDH
08110,Bedong,KDH
08200,Sik,KDH
08210,Sik,KDH
08300,Gurun,KDH
08320,Jeniang,KDH
08330,Gurun,KDH
08340,Sik,KDH
08400,Merbok,KDH
08407,Merbok,KDH
08409,Merbok,KDH
08500,Kota Kuala Muda,KDH
08507,Kota Kuala Muda,KDH
08509,Kota Kuala Muda,KDH
08600,Sungai Petani,KDH
08700,Jeniang,KDH
08800,Gurun,KDH
09000,Kulim,KDH
09007,Kulim,KDH
09009,Kulim,KDH
09010,Kulim,KDH
09020,Kulim,KDH
09090,Kulim,KDH
09100,Baling,KDH
09110,Kuala Pegang,KDH
09120,Baling,KDH
09130,Baling,KDH
09200,Kupang,KDH
09300,Kuala Ketil,KDH
09310,Kuala Ketil,KDH
09400,Padang Serai,KDH
09410,Padang Serai,KDH
09600,Lunas,KDH
09700,Karangan,KDH
09800,Serdang,KDH
09810,Serdang,KDH
10000,Pulau Pinang,PNG
10050,Pulau Pinang,PNG
10100,Pulau Pinang,PNG
10150,Pulau Pinang,PNG
10200,Pulau Pinang,PNG
10250,Pulau Pinang,PNG
10300,Pulau Pinang,PNG
10350,Pulau Pinang,PNG
10400,Pulau Pinang,PNG
10450,Pulau Pinang,PNG
10460,Pulau Pinang,PNG
10470,Pulau Pinang,PNG
10500,Pulau Pinang,PNG
10502,Pulau Pinang,PNG
10503,Pulau Pinang,PNG
10504,Pulau Pinang,PNG
10505,Pulau Pinang,PNG
10506,Pulau Pinang,PNG
10508,Pulau Pinang,PNG
10512,Pulau Pinang,PNG
10514,Pulau Pinang,PNG
10516,Pulau Pinang,PNG
10518,Pulau Pinang,PNG
10524,Pulau Pinang,PNG
10534,Pulau Pinang,PNG
10538,Pulau Pinang,PNG
10540,Pulau Pinang,PNG
10542,Pulau Pinang,PNG
10546,Pulau Pinang,PNG
10550,Pulau Pinang,PNG
10551,Pulau Pinang,PNG
10552,Pulau Pinang,PNG
10558,Pulau Pinang,PNG
10560,Pulau Pinang,PNG
10564,Pulau Pinang,PNG
10566,Pulau Pinang,PNG
10570,Pulau Pinang,PNG
10576,Pulau Pinang,PNG
10578,Pulau Pinang,PNG
10582,Pulau Pinang,PNG
10590,Pulau Pinang,PNG
10592,Pulau Pinang,PNG
10593,Pulau Pinang,PNG
10594,Pulau Pinang,PNG
10596,Pulau Pinang,PNG
10600,Pulau Pinang,PNG
10604,Pulau Pinang,PNG
10609,Pulau Pinang,PNG
10610,Pulau Pinang,PNG
10612,Pulau Pinang,PNG
10620,Pulau Pinang,PNG
10622,Pulau Pinang,PNG
10626,Pulau Pinang,PNG
10628,Pulau Pinang,PNG
10634,Pulau Pinang,PNG
10646,Pulau Pinang,PNG
10648,Pulau Pinang,PNG
10660,Pulau Pinang,PNG
10661,Pulau Pinang,PNG
10662,Pulau Pinang,PNG
10670,Pulau Pinang,PNG
10672,Pulau Pinang,PNG
10673,Pulau Pinang,PNG
10674,Pulau Pinang,PNG
10676,Pulau Pinang,PNG
10690,Pulau Pinang,PNG
10710,Pulau Pinang,PNG
10720,Pulau Pinang,PNG
10730,Pulau Pinang,PNG
10740,Pulau Pinang,PNG
10750,Pulau Pinang,PNG
10760,Pulau Pinang,PNG
10770,Pulau Pinang,PNG
10780,Pulau Pinang,PNG
10790,Pulau Pinang,PNG
10800,Pulau Pinang,PNG
10810,Pulau Pinang,PNG
10820,Pulau Pinang,PNG
10830,Pulau Pinang,PNG
10840,Pulau Pinang,PNG
10850,Pulau Pinang,PNG
10910,Pulau Pinang,PNG
10920,Pulau Pinang,PNG
10990,Pulau Pinang,PNG
11000,Balik Pulau,PNG
11010,Balik Pulau,PNG
11020,Balik Pulau,PNG
11050,Pulau Pinang,PNG
11060,Pulau Pinang,PNG
11100,Batu Ferringhi,PNG
11200,Tanjung Bungah,PNG
11300,Penang Hill,PNG
11400,Pulau Pinang,PNG
11409,Pulau Pinang,PNG
11500,Ayer Itam,PNG
11600,Jelutong,PNG
11609,Jelutong,PNG
11700,Gelugor,PNG
11800,USM Pulau Pinang,PNG
11900,Bayan Lepas,PNG
11910,Bayan Lepas,PNG
11920,Bayan Lepas,PNG
11950,Bayan Lepas,PNG
11960,Batu Maung,PNG
12000,Butterworth,PNG
12100,Butterworth,PNG
12200,Butterworth,PNG
12300,Butterworth,PNG
12700,Butterworth,PNG
12710,Butterworth,PNG
12720,Butterworth,PNG
12990,Butterworth,PNG
13000,Butterworth,PNG
13009,Butterworth,PNG
13020,Butterworth,PNG
13050,Butterworth,PNG
13100,Penaga,PNG
13110,Penaga,PNG
13200,Kepala Batas,PNG
13210,Kepala Batas,PNG
13220,Kepala Batas,PNG
13300,Tasek Gelugor,PNG
13310,Tasek Gelugor,PNG
13400,Butterworth,PNG
13409,Butterworth,PNG
13500,Permatang Pauh,PNG
13600,Perai,PNG
13700,Perai,PNG
13800,Butterworth,PNG
14000,Bukit Mertajam,PNG
14007,Bukit Mertajam,PNG
14009,Bukit Mertajam,PNG
14020,Bukit Mertajam,PNG
14100,Simpang Ampat,PNG
14101,Simpang Ampat,PNG
14110,Simpang Ampat,PNG
14120,Simpang Ampat,PNG
14200,Sungai Jawi,PNG
14290,Bandar Baharu,KDH
14300,Nibong Tebal,PNG
14310,Nibong Tebal,PNG
14320,Nibong Tebal,PNG
14390,Bandar Baharu,KDH
14400,Kubang Semang,PNG
15000,Kota Bharu,KTN
15050,Kota Bharu,KTN
15100,Kota Bharu,KTN
15150,Kota Bharu,KTN
15159,Kota Bharu,KTN
15200,Kota Bharu,KTN
15300,Kota Bharu,KTN
15350,Kota Bharu,KTN
15400,Kota Bharu,KTN
15500,Kota Bharu,KTN
15502,Kota Bharu,KTN
15503,Kota Bharu,KTN
15504,Kota Bharu,KTN
15505,Kota Bharu,KTN
15506,Kota Bharu,KTN
15508,Kota Bharu,KTN
15512,Kota Bharu,KTN
15514,Kota Bharu,KTN
15516,Kota Bharu,KTN
15517,Kota Bharu,KTN
15518,Kota Bharu,KTN
15519,Kota Bharu,KTN
15520,Kota Bharu,KTN
15524,Kota Bharu,KTN
15529,Kota Bharu,KTN
15532,Kota Bharu,KTN
15534,Kota Bharu,KTN
15536,Kota Bharu,KTN
15538,Kota Bharu,KTN
15540,Kota Bharu,KTN
15546,Kota Bharu,KTN
15548,Kota Bharu,KTN
15550,Kota Bharu,KTN
15551,Kota Bharu,KTN
15556,Kota Bharu,KTN
15558,Kota Bharu,KTN
15560,Kota Bharu,KTN
15564,Kota Bharu,KTN
15570,Kota Bharu,KTN
15572,Kota Bharu,KTN
15576,Kota Bharu,KTN
15578,Kota Bharu,KTN
15582,Kota Bharu,KTN
15586,Kota Bharu,KTN
15590,Kota Bharu,KTN
15592,Kota Bharu,KTN
15594,Kota Bharu,KTN
15596,Kota Bharu,KTN
15600,Kota Bharu,KTN
15604,Kota Bharu,KTN
15608,Kota Bharu,KTN
15609,Kota Bharu,KTN
15612,Kota Bharu,KTN
15614,Kota Bharu,KTN
15616,Kota Bharu,KTN
15622,Kota Bharu,KTN
15623,Kota Bharu,KTN
15626,Kota Bharu,KTN
15628,Kota Bharu,KTN
15630,Kota Bharu,KTN
15632,Kota Bharu,KTN
15634,Kota Bharu,KTN
15644,Kota Bharu,KTN
15646,Kota Bharu,KTN
15648,Kota Bharu,KTN
15658,Kota Bharu,KTN
15660,Kota Bharu,KTN
15661,Kota Bharu,KTN
15664,Kota Bharu,KTN
15670,Kota Bharu,KTN
15672,Kota Bharu,KTN
15673,Kota Bharu,KTN
15674,Kota Bharu,KTN
15676,Kota Bharu,KTN
15680,Kota Bharu,KTN
15690,Kota Bharu,KTN
15710,Kota Bharu,KTN
15720,Kota Bharu,KTN
15730,Kota Bharu,KTN
15740,Kota Bharu,KTN
15988,Kota Bharu,KTN
15990,Kota Bharu,KTN
16010,Kota Bharu,KTN
16020,Bachok,KTN
16030,Bachok,KTN
16040,Wakaf Bharu,KTN
16050,Bachok,KTN
16060,Bachok,KTN
16070,Bachok,KTN
16080,Tumpat,KTN
16090,Bachok,KTN
16100,Kota Bharu,KTN
16109,Kota Bharu,KTN
16150,Kota Bharu,KTN
16200,Tumpat,KTN
16210,Tumpat,KTN
16250,Wakaf Bharu,KTN
16300,Bachok,KTN
16310,Bachok,KTN
16320,Bachok,KTN
16400,Melor,KTN
16450,Ketereh,KTN
16500,Kem Desa Pahlawan,KTN
16600,Pulai Chondong,KTN
16700,Cherang Ruku,KTN
16800,Pasir Puteh,KTN
16810,Selising,KTN
17000,Pasir Mas,KTN
17007,Pasir Mas,KTN
17009,Pasir Mas,KTN
17010,Pasir Mas,KTN
17020,Pasir Mas,KTN
17030,Pasir Mas,KTN
17040,Pasir Mas,KTN
17050,Pasir Mas,KTN
17060,Pasir Mas,KTN
17070,Pasir Mas,KTN
17200,Rantau Panjang,KTN
17500,Tanah Merah,KTN
17507,Tanah Merah,KTN
17509,Tanah Merah,KTN
17510,Tanah Merah,KTN
17600,Jeli,KTN
17610,Kuala Balah,KTN
17700,Ayer Lanas,KTN
18000,Kuala Krai,KTN
18050,Kuala Krai,KTN
18200,Dabong,KTN
18300,Gua Musang,KTN
18400,Temangan,KTN
18500,Machang,KTN
20000,Kuala Terengganu,TRG
20050,Kuala Terengganu,TRG
20100,Kuala Terengganu,TRG
20200,Kuala Terengganu,TRG
20300,Kuala Terengganu,TRG
20400,Kuala Terengganu,TRG
20500,Kuala Terengganu,TRG
20502,Kuala Terengganu,TRG
20503,Kuala Terengganu,TRG
20504,Kuala Terengganu,TRG
20505,Kuala Terengganu,TRG
20506,Kuala Terengganu,TRG
20508,Kuala Terengganu,TRG
20512,Kuala Terengganu,TRG
20514,Kuala Terengganu,TRG
20516,Kuala Terengganu,TRG
20517,Kuala Terengganu,TRG
20518,Kuala Terengganu,TRG
20519,Kuala Terengganu,TRG
20520,Kuala Terengganu,TRG
20532,Kuala Terengganu,TRG
20534,Kuala Terengganu,TRG
20536,Kuala Terengganu,TRG
20538,Kuala Terengganu,TRG
20540,Kuala Terengganu,TRG
20542,Kuala Terengganu,TRG
20546,Kuala Terengganu,TRG
20548,Kuala Terengganu,TRG
20550,Kuala Terengganu,TRG
20551,Kuala Terengganu,TRG
20552,Kuala Terengganu,TRG
20554,Kuala Terengganu,TRG
20556,Kuala Terengganu,TRG
20560,Kuala Terengganu,TRG
20564,Kuala Terengganu,TRG
20566,Kuala Terengganu,TRG
20568,Kuala Terengganu,TRG
20570,Kuala Terengganu,TRG
20572,Kuala Terengganu,TRG
20576,Kuala Terengganu,TRG
20578,Kuala Terengganu,TRG
20582,Kuala Terengganu,TRG
20586,Kuala Terengganu,TRG
20590,Kuala Terengganu,TRG
20592,Kuala Terengganu,TRG
20596,Kuala Terengganu,TRG
20600,Kuala Terengganu,TRG
20604,Kuala Terengganu,TRG
20606,Kuala Terengganu,TRG
20608,Kuala Terengganu,TRG
20609,Kuala Terengganu,TRG
20610,Kuala Terengganu,TRG
20612,Kuala Terengganu,TRG
20614,Kuala Terengganu,TRG
20618,Kuala Terengganu,TRG
20620,Kuala Terengganu,TRG
20622,Kuala Terengganu,TRG
20626,Kuala Terengganu,TRG
20628,Kuala Terengganu,TRG
20630,Kuala Terengganu,TRG
20632,Kuala Terengganu,TRG
20646,Kuala Terengganu,TRG
20648,Kuala Terengganu,TRG
20656,Kuala Terengganu,TRG
20658,Kuala Terengganu,TRG
20660,Kuala Terengganu,TRG
20661,Kuala Terengganu,TRG
20662,Kuala Terengganu,TRG
20664,Kuala Terengganu,TRG
20668,Kuala Terengganu,TRG
20670,Kuala Terengganu,TRG
20672,Kuala Terengganu,TRG
20673,Kuala Terengganu,TRG
20674,Kuala Terengganu,TRG
20676,Kuala Terengganu,TRG
20680,Kuala Terengganu,TRG
20690,Kuala Terengganu,TRG
20698,Kuala Terengganu,TRG
20700,Kuala Terengganu,TRG
20710,Kuala Terengganu,TRG
20720,Kuala Terengganu,TRG
20900,Kuala Terengganu,TRG
20902,Kuala Terengganu,TRG
20904,Kuala Terengganu,TRG
20906,Kuala Terengganu,TRG
20908,Kuala Terengganu,TRG
20910,Kuala Terengganu,TRG
20912,Kuala Terengganu,TRG
20914,Kuala Terengganu,TRG
20916,Kuala Terengganu,TRG
20918,Kuala Terengganu,TRG
20920,Kuala Terengganu,TRG
20922,Kuala Terengganu,TRG
20924,Kuala Terengganu,TRG
20926,Kuala Terengganu,TRG
20928,Kuala Terengganu,TRG
20930,Kuala Terengganu,TRG
20990,Kuala Terengganu,TRG
21000,Kuala Terengganu,TRG
21009,Kuala Terengganu,TRG
21010,Kuala Terengganu,TRG
21020,Kuala Terengganu,TRG
21030,Kuala Terengganu,TRG
21040,Kuala Terengganu,TRG
21060,Kuala Terengganu,TRG
21070,Kuala Terengganu,TRG
21080,Kuala Terengganu,TRG
21090,Kuala Terengganu,TRG
21100,Kuala Terengganu,TRG
21109,Kuala Terengganu,TRG
21200,Kuala Terengganu,TRG
21209,Kuala Terengganu,TRG
21210,Kuala Terengganu,TRG
21220,Kuala Terengganu,TRG
21300,Kuala Terengganu,TRG
21309,Kuala Terengganu,TRG
21400,Bukit Payong,TRG
21450,Chalok,TRG
21500,Sungai Tong,TRG
21600,Marang,TRG
21610,Marang,TRG
21700,Kuala Berang,TRG
21800,Ajil,TRG
21810,Ajil,TRG
21820,Ajil,TRG
22000,Jerteh,TRG
22010,Jerteh,TRG
22020,Jerteh,TRG
22100,Permaisuri,TRG
22107,Permaisuri,TRG
22109,Permaisuri,TRG
22110,Permaisuri,TRG
22120,Permaisuri,TRG
22200,Kampung Raja,TRG
22300,Kuala Besut,TRG
22307,Kuala Besut,TRG
22309,Kuala Besut,TRG
23000,Dungun,TRG
23007,Dungun,TRG
23009,Dungun,TRG
23050,Dungun,TRG
23100,Paka,TRG
23200,Bukit Besi,TRG
23300,Ketengah Jaya,TRG
23400,Al Muktatfi Billah Shah,TRG
24000,Cukai,TRG
24007,Cukai,TRG
24009,Cukai,TRG
24050,Ayer Puteh,TRG
24060,Ceneh,TRG
24100,Kijal,TRG
24107,Kijal,TRG
24109,Kijal,TRG
24200,Kemasek,TRG
24207,Kemasek,TRG
24209,Kemasek,TRG
24300,Kerteh,TRG
25000,Kuantan,PHG
25050,Kuantan,PHG
25100,Kuantan,PHG
25150,Kuantan,PHG
25200,Kuantan,PHG
25250,Kuantan,PHG
25300,Kuantan,PHG
25350,Kuantan,PHG
25500,Kuantan,PHG
25502,Kuantan,PHG
25503,Kuantan,PHG
25504,Kuantan,PHG
25505,Kuantan,PHG
25506,Kuantan,PHG
25508,Kuantan,PHG
25509,Kuantan,PHG
25512,Kuantan,PHG
25514,Kuantan,PHG
25516,Kuantan,PHG
25517,Kuantan,PHG
25518,Kuantan,PHG
25520,Kuantan,PHG
25524,Kuantan,PHG
25529,Kuantan,PHG
25532,Kuantan,PHG
25534,Kuantan,PHG
25536,Kuantan,PHG
25538,Kuantan,PHG
25540,Kuantan,PHG
25546,Kuantan,PHG
25548,Kuantan,PHG
25550,Kuantan,PHG
25551,Kuantan,PHG
25552,Kuantan,PHG
25556,Kuantan,PHG
25558,Kuantan,PHG
25560,Kuantan,PHG
25564,Kuantan,PHG
25570,Kuantan,PHG
25576,Kuantan,PHG
25578,Kuantan,PHG
25582,Kuantan,PHG
25584,Kuantan,PHG
25586,Kuantan,PHG
25590,Kuantan,PHG
25592,Kuantan,PHG
25594,Kuantan,PHG
25596,Kuantan,PHG
25598,Kuantan,PHG
25600,Kuantan,PHG
25604,Kuantan,PHG
25606,Kuantan,PHG
25608,Kuantan,PHG
25609,Kuantan,PHG
25610,Kuantan,PHG
25612,Kuantan,PHG
25614,Kuantan,PHG
25620,Kuantan,PHG
25622,Kuantan,PHG
25626,Kuantan,PHG
25628,Kuantan,PHG
25630,Kuantan,PHG
25632,Kuantan,PHG
25644,Kuantan,PHG
25646,Kuantan,PHG
25648,Kuantan,PHG
25656,Kuantan,PHG
25660,Kuantan,PHG
25661,Kuantan,PHG
25662,Kuantan,PHG
25670,Kuantan,PHG
25672,Kuantan,PHG
25673,Kuantan,PHG
25674,Kuantan,PHG
25676,Kuantan,PHG
25690,Kuantan,PHG
25700,Kuantan,PHG
25710,Kuantan,PHG
25720,Kuantan,PHG
25730,Kuantan,PHG
25740,Kuantan,PHG
25750,Kuantan,PHG
25990,Kuantan,PHG
26010,Kuantan,PHG
26040,Kuantan,PHG
26050,Bukit Goh,PHG
26060,Kuantan,PHG
26070,Kuantan,PHG
26080,Kuantan,PHG
26090,Bukit Goh,PHG
26100,Kuantan,PHG
26140,Kuantan,PHG
26150,Balok,PHG
26180,Bukit Kuin,PHG
26190,Balok,PHG
26200,Sungai Lembing,PHG
26250,Kuantan,PHG
26300,Gambang,PHG
26310,Gambang,PHG
26320,Gambang,PHG
26330,Gambang,PHG
26340,Gambang,PHG
26350,Gambang,PHG
26360,Gambang,PHG
26370,Gambang,PHG
26400,Bandar Pusat Jengka,PHG
26410,Bandar Pusat Jengka,PHG
26420,Bandar Pusat Jengka,PHG
26430,Bandar Pusat Jengka,PHG
26440,Bandar Pusat Jengka,PHG
26450,Bandar Pusat Jengka,PHG
26460,Bandar Pusat Jengka,PHG
26485,Bandar Pusat Jengka,PHG
26490,Bandar Pusat Jengka,PHG
26500,Maran,PHG
26600,Pekan,PHG
26607,Pekan,PHG
26609,Pekan,PHG
26610,Pekan,PHG
26620,Pekan,PHG
26630,Pekan,PHG
26640,Pekan,PHG
26650,Pekan,PHG
26660,Pekan,PHG
26680,Pekan,PHG
26690,Chini,PHG
26700,Muadzam Shah,PHG
26800,Kuala Rompin,PHG
26810,Kuala Rompin,PHG
26820,Kuala Rompin,PHG
26900,Bandar Tun Abdul Razak,PHG
27000,Jerantut,PHG
27010,Jerantut,PHG
27020,Jerantut,PHG
27030,Damak,PHG
27040,Jerantut,PHG
27050,Jerantut,PHG
27060,Jerantut,PHG
27070,Jerantut,PHG
27090,Jerantut,PHG
27100,Padang Tengku,PHG
27150,Jerantut,PHG
27200,Kuala Lipis,PHG
27207,Kuala Lipis,PHG
27209,Kuala Lipis,PHG
27210,Kuala Lipis,PHG
27300,Benta,PHG
27310,Benta,PHG
27400,Dong,PHG
27500,Raub,PHG
27600,Raub,PHG
27607,Raub,PHG
27609,Raub,PHG
27610,Raub,PHG
27620,Raub,PHG
27630,Raub,PHG
27650,Sungai Koyan,PHG
27660,Sega,PHG
27670,Raub,PHG
28000,Temerloh,PHG
28007,Temerloh,PHG
28009,Temerloh,PHG
28010,Temerloh,PHG
28020,Temerloh,PHG
28030,Temerloh,PHG
28040,Temerloh,PHG
28050,Kuala Krau,PHG
28100,Chenor,PHG
28200,Bandar Bera,PHG
28300,Triang,PHG
28310,Triang,PHG
28320,Triang,PHG
28330,Triang,PHG
28340,Kemayan,PHG
28380,Kemayan,PHG
28400,Mentakab,PHG
28407,Mentakab,PHG
28409,Mentakab,PHG
28500,Lanchang,PHG
28600,Karak,PHG
28610,Karak,PHG
28620,Karak,PHG
28700,Bentong,PHG
28707,Bentong,PHG
28709,Bentong,PHG
28730,Bentong,PHG
28740,Bentong,PHG
28750,Bentong,PHG
28800,Lurah Bilut,PHG
30000,Ipoh,PRK
30010,Ipoh,PRK
30020,Ipoh,PRK
30100,Ipoh,PRK
30200,Ipoh,PRK
30250,Ipoh,PRK
30300,Ipoh,PRK
30350,Ipoh,PRK
30450,Ipoh,PRK
30500,Ipoh,PRK
30502,Ipoh,PRK
30503,Ipoh,PRK
30504,Ipoh,PRK
30505,Ipoh,PRK
30506,Ipoh,PRK
30508,Ipoh,PRK
30510,Ipoh,PRK
30512,Ipoh,PRK
30516,Ipoh,PRK
30517,Ipoh,PRK
30518,Ipoh,PRK
30519,Ipoh,PRK
30520,Ipoh,PRK
30524,Ipoh,PRK
30532,Ipoh,PRK
30534,Ipoh,PRK
30536,Ipoh,PRK
30540,Ipoh,PRK
30542,Ipoh,PRK
30546,Ipoh,PRK
30548,Ipoh,PRK
30550,Ipoh,PRK
30551,Ipoh,PRK
30552,Ipoh,PRK
30554,Ipoh,PRK
30556,Ipoh,PRK
30560,Ipoh,PRK
30564,Ipoh,PRK
30570,Ipoh,PRK
30576,Ipoh,PRK
30580,Ipoh,PRK
30582,Ipoh,PRK
30586,Ipoh,PRK
30590,Ipoh,PRK
30592,Ipoh,PRK
30594,Ipoh,PRK
30596,Ipoh,PRK
30600,Ipoh,PRK
30604,Ipoh,PRK
30606,Ipoh,PRK
30609,Ipoh,PRK
30610,Ipoh,PRK
30612,Ipoh,PRK
30614,Ipoh,PRK
30620,Ipoh,PRK
30621,Ipoh,PRK
30622,Ipoh,PRK
30626,Ipoh,PRK
30628,Ipoh,PRK
30630,Ipoh,PRK
30632,Ipoh,PRK
30634,Ipoh,PRK
30644,Ipoh,PRK
30646,Ipoh,PRK
30648,Ipoh,PRK
30656,Ipoh,PRK
30658,Ipoh,PRK
30660,Ipoh,PRK
30661,Ipoh,PRK
30662,Ipoh,PRK
30664,Ipoh,PRK
30668,Ipoh,PRK
30670,Ipoh,PRK
30673,Ipoh,PRK
30674,Ipoh,PRK
30676,Ipoh,PRK
30682,Ipoh,PRK
30690,Ipoh,PRK
30700,Ipoh,PRK
30710,Ipoh,PRK
30720,Ipoh,PRK
30730,Ipoh,PRK
30740,Ipoh,PRK
30750,Ipoh,PRK
30760,Ipoh,PRK
30770,Ipoh,PRK
30780,Ipoh,PRK
30790,Ipoh,PRK
30800,Ipoh,PRK
30810,Ipoh,PRK
30820,Ipoh,PRK
30830,Ipoh,PRK
30840,Ipoh,PRK
30900,Ipoh,PRK
30902,Ipoh,PRK
30904,Ipoh,PRK
30906,Ipoh,PRK
30908,Ipoh,PRK
30910,Ipoh,PRK
30912,Ipoh,PRK
30988,Ipoh,PRK
30990,Ipoh,PRK
31000,Batu Gajah,PRK
31007,Batu Gajah,PRK
31009,Batu Gajah,PRK
31050,Sungai Siput,PRK
31100,Sungai Siput,PRK
31150,Ulu Kinta,PRK
31200,Chemor,PRK
31250,Tanjong Rambutan,PRK
31300,Kampung Kepayang,PRK
31350,Ipoh,PRK
31400,Ipoh,PRK
31407,Ipoh,PRK
31409,Ipoh,PRK
31450,Ipoh,PRK
31500,Ipoh,PRK
31550,Pusing,PRK
31560,Pusing,PRK
31600,Gopeng,PRK
31610,Gopeng,PRK
31650,Ipoh,PRK
31700,Malim Nawar,PRK
31750,Tronoh,PRK
31800,Tanjong Tualang,PRK
31850,Jeram,PRK
31900,Kampar,PRK
31907,Kampar,PRK
31909,Kampar,PRK
31910,Kampar,PRK
31920,Kampar,PRK
31950,Kampar,PRK
32000,Sitiawan,PRK
32040,Seri Manjung,PRK
32100,TLDM Lumut,PRK
32200,Lumut,PRK
32300,Pangkor,PRK
32400,Ayer Tawar,PRK
32500,Changkat Keruing,PRK
32600,Bota,PRK
32610,Bandar Seri Iskandar,PRK
32700,Bruas,PRK
32800,Parit,PRK
32900,Lambor Kanan,PRK
33000,Kuala Kangsar,PRK
33007,Kuala Kangsar,PRK
33009,Kuala Kangsar,PRK
33010,Kuala Kangsar,PRK
33020,Kuala Kangsar,PRK
33030,Kuala Kangsar,PRK
33040,Kuala Kangsar,PRK
33100,Pengkalan Hulu,PRK
33200,Intan,PRK
33300,Gerik,PRK
33310,Gerik,PRK
33320,Gerik,PRK
33400,Lenggong,PRK
33410,Lenggong,PRK
33420,Lenggong,PRK
33500,Sauk,PRK
33600,Enggor,PRK
33700,Padang Rengas,PRK
33800,Manong,PRK
34000,Taiping,PRK
34007,Taiping,PRK
34008,Taiping,PRK
34009,Taiping,PRK
34010,Taiping,PRK
34020,Taiping,PRK
34030,Taiping,PRK
34100,Selama,PRK
34120,Selama,PRK
34130,Selama,PRK
34140,Rantau Panjang,PRK
34200,Parit Buntar,PRK
34250,Tanjong Piandang,PRK
34300,Bagan Serai,PRK
34310,Bagan Serai,PRK
34350,Kuala Kurau,PRK
34400,Simpang Ampat Semanggol,PRK
34500,Batu Kurau,PRK
34510,Batu Kurau,PRK
34520,Batu Kurau,PRK
34600,Kamunting,PRK
34650,Kuala Sepetang,PRK
34700,Simpang,PRK
34750,Matang,PRK
34800,Trong,PRK
34850,Changkat Jering,PRK
34900,Pantai Remis,PRK
34950,Bandar Baharu,KDH
35000,Tapah,PRK
35007,Tapah,PRK
35009,Tapah,PRK
35300,Chenderiang,PRK
35350,Temoh,PRK
35400,Tapah Road,PRK
35500,Bidor,PRK
35600,Sungkai,PRK
35700,Trolak,PRK
35800,Slim River,PRK
35820,Slim River,PRK
35900,Tanjong Malim,PRK
35907,Tanjong Malim,PRK
35909,Tanjong Malim,PRK
35910,Tanjong Malim,PRK
35950,Behrang Stesen,PRK
36000,Teluk Intan,PRK
36007,Teluk Intan,PRK
36008,Teluk Intan,PRK
36009,Teluk Intan,PRK
36010,Teluk Intan,PRK
36020,Teluk Intan,PRK
36030,Teluk Intan,PRK
36100,Bagan Datoh,PRK
36110,Teluk Intan,PRK
36200,Selekoh,PRK
36207,Selekoh,PRK
36209,Selekoh,PRK
36300,Sungai Sumun,PRK
36307,Sungai Sumun,PRK
36309,Sungai Sumun,PRK
36400,Hutan Melintang,PRK
36500,Ulu Bernam,PRK
36600,Chenderong Balai,PRK
36700,Langkap,PRK
36750,Chikus,PRK
36800,Kampung Gajah,PRK
36810,Kampung Gajah,PRK
39000,Tanah Rata,PHG
39007,Tanah Rata,PHG
39009,Tanah Rata,PHG
39010,Tanah Rata,PHG
39100,Brinchang,PHG
39200,Ringlet,PHG
40000,Shah Alam,SGR
40100,Shah Alam,SGR
40150,Shah Alam,SGR
40160,Shah Alam,SGR
40170,Shah Alam,SGR
40200,Shah Alam,SGR
40300,Shah Alam,SGR
40400,Shah Alam,SGR
40450,Shah Alam,SGR
40460,Shah Alam,SGR
40470,Shah Alam,SGR
40500,Shah Alam,SGR
40502,Shah Alam,SGR
40503,Shah Alam,SGR
40505,Shah Alam,SGR
40512,Shah Alam,SGR
40517,Shah Alam,SGR
40520,Shah Alam,SGR
40529,Shah Alam,SGR
40542,Shah Alam,SGR
40548,Shah Alam,SGR
40550,Shah Alam,SGR
40551,Shah Alam,SGR
40560,Shah Alam,SGR
40564,Shah Alam,SGR
40570,Shah Alam,SGR
40572,Shah Alam,SGR
40576,Shah Alam,SGR
40578,Shah Alam,SGR
40582,Shah Alam,SGR
40590,Shah Alam,SGR
40592,Shah Alam,SGR
40594,Shah Alam,SGR
40596,Shah Alam,SGR
40598,Shah Alam,SGR
40604,Shah Alam,SGR
40607,Shah Alam,SGR
40608,Shah Alam,SGR
40610,Shah Alam,SGR
40612,Shah Alam,SGR
40620,Shah Alam,SGR
40622,Shah Alam,SGR
40626,Shah Alam,SGR
40632,Shah Alam,SGR
40646,Shah Alam,SGR
40648,Shah Alam,SGR
40660,Shah Alam,SGR
40664,Shah Alam,SGR
40670,Shah Alam,SGR
40672,Shah Alam,SGR
40673,Shah Alam,SGR
40674,Shah Alam,SGR
40675,Shah Alam,SGR
40676,Shah Alam,SGR
40680,Shah Alam,SGR
40690,Shah Alam,SGR
40700,Shah Alam,SGR
40702,Shah Alam,SGR
40704,Shah Alam,SGR
40706,Shah Alam,SGR
40708,Shah Alam,SGR
40710,Shah Alam,SGR
40712,Shah Alam,SGR
40714,Shah Alam,SGR
40716,Shah Alam,SGR
40718,Shah Alam,SGR
40720,Shah Alam,SGR
40722,Shah Alam,SGR
40724,Shah Alam,SGR
40726,Shah Alam,SGR
40728,Shah Alam,SGR
40730,Shah Alam,SGR
40732,Shah Alam,SGR
40800,Shah Alam,SGR
40802,Shah Alam,SGR
40804,Shah Alam,SGR
40806,Shah Alam,SGR
40808,Shah Alam,SGR
40810,Shah Alam,SGR
40990,Shah Alam,SGR
41000,Klang,SGR
41050,Klang,SGR
41100,Klang,SGR
41150,Klang,SGR
41200,Klang,SGR
41250,Klang,SGR
41300,Klang,SGR
41400,Klang,SGR
41506,Klang,SGR
41560,Klang,SGR
41586,Klang,SGR
41672,Klang,SGR
41700,Klang,SGR
41710,Klang,SGR
41720,Klang,SGR
41900,Klang,SGR
41902,Klang,SGR
41904,Klang,SGR
41906,Klang,SGR
41908,Klang,SGR
41910,Klang,SGR
41912,Klang,SGR
41914,Klang,SGR
41916,Klang,SGR
41918,Klang,SGR
41990,Klang,SGR
42000,Pelabuhan Klang,SGR
42009,Pelabuhan Klang,SGR
42100,Klang,SGR
42200,Kapar,SGR
42300,Bandar Puncak Alam,SGR
42425,Telok Panglima Garang,SGR
42500,Telok Panglima Garang,SGR
42507,Telok Panglima Garang,SGR
42509,Telok Panglima Garang,SGR
42600,Jenjarom,SGR
42610,Jenjarom,SGR
42700,Banting,SGR
42800,Tanjong Sepat,SGR
42920,Pulau Indah,SGR
42940,Pulau Ketam,SGR
42960,Pulau Carey,SGR
43000,Kajang,SGR
43007,Kajang,SGR
43009,Kajang,SGR
43100,Hulu Langat,SGR
43200,Cheras,SGR
43207,Cheras,SGR
43300,Seri Kembangan,SGR
43400,Serdang,SGR
43500,Semenyih,SGR
43558,Kajang,SGR
43600,Bandar Baru Bangi,SGR
43650,Bandar Baru Bangi,SGR
43700,Beranang,SGR
43800,Dengkil,SGR
43807,Dengkil,SGR
43900,Sepang,SGR
43950,Sungai Pelek,SGR
44000,Kuala Kubu Baru,SGR
44010,Kuala Kubu Baru,SGR
44020,Kuala Kubu Baru,SGR
44100,Kerling,SGR
44110,Kuala Kubu Baru,SGR
44200,Rasa,SGR
44300,Batang Kali,SGR
45000,Kuala Selangor,SGR
45100,Sungai Ayer Tawar,SGR
45200,Sabak Bernam,SGR
45207,Sabak Bernam,SGR
45209,Sabak Bernam,SGR
45300,Sungai Besar,SGR
45400,Sekinchan,SGR
45500,Tanjong Karang,SGR
45600,Bestari Jaya,SGR
45607,Bestari Jaya,SGR
45609,Bestari Jaya,SGR
45620,Bestari Jaya,SGR
45700,Bukit Rotan,SGR
45800,Jeram,SGR
46000,Petaling Jaya,SGR
46050,Petaling Jaya,SGR
46100,Petaling Jaya,SGR
46150,Petaling Jaya,SGR
46200,Petaling Jaya,SGR
46300,Petaling Jaya,SGR
46350,Petaling Jaya,SGR
46400,Petaling Jaya,SGR
46506,Petaling Jaya,SGR
46547,Petaling Jaya,SGR
46549,Petaling Jaya,SGR
46551,Petaling Jaya,SGR
46564,Petaling Jaya,SGR
46582,Petaling Jaya,SGR
46598,Petaling Jaya,SGR
46662,Petaling Jaya,SGR
46667,Petaling Jaya,SGR
46668,Petaling Jaya,SGR
46672,Petaling Jaya,SGR
46675,Petaling Jaya,SGR
46700,Petaling Jaya,SGR
46710,Petaling Jaya,SGR
46720,Petaling Jaya,SGR
46730,Petaling Jaya,SGR
46740,Petaling Jaya,SGR
46750,Petaling Jaya,SGR
46760,Petaling Jaya,SGR
46770,Petaling Jaya,SGR
46780,Petaling Jaya,SGR
46781,Petaling Jaya,SGR
46782,Petaling Jaya,SGR
46783,Petaling Jaya,SGR
46784,Petaling Jaya,SGR
46785,Petaling Jaya,SGR
46786,Petaling Jaya,SGR
46787,Petaling Jaya,SGR
46788,Petaling Jaya,SGR
46789,Petaling Jaya,SGR
46790,Petaling Jaya,SGR
46791,Petaling Jaya,SGR
46792,Petaling Jaya,SGR
46793,Petaling Jaya,SGR
46794,Petaling Jaya,SGR
46795,Petaling Jaya,SGR
46796,Petaling Jaya,SGR
46797,Petaling Jaya,SGR
46798,Petaling Jaya,SGR
46799,Petaling Jaya,SGR
46800,Petaling Jaya,SGR
46801,Petaling Jaya,SGR
46802,Petaling Jaya,SGR
46803,Petaling Jaya,SGR
46804,Petaling Jaya,SGR
46805,Petaling Jaya,SGR
46806,Petaling Jaya,SGR
46860,Petaling Jaya,SGR
46870,Petaling Jaya,SGR
46960,Petaling Jaya,SGR
46962,Petaling Jaya,SGR
46964,Petaling Jaya,SGR
46966,Petaling Jaya,SGR
46968,Petaling Jaya,SGR
46970,Petaling Jaya,SGR
46972,Petaling Jaya,SGR
46974,Petaling Jaya,SGR
46976,Petaling Jaya,SGR
46978,Petaling Jaya,SGR
47000,Sungai Buloh,SGR
47100,Puchong,SGR
47110,Puchong,SGR
47120,Puchong,SGR
47130,Puchong,SGR
47140,Puchong,SGR
47150,Puchong,SGR
47160,Puchong,SGR
47170,Puchong,SGR
47180,Puchong,SGR
47190,Puchong,SGR
47200,Subang Jaya,SGR
47300,Petaling Jaya,SGR
47301,Petaling Jaya,SGR
47307,Petaling Jaya,SGR
47308,Petaling Jaya,SGR
47400,Petaling Jaya,SGR
47410,Petaling Jaya,SGR
47500,Subang Jaya,SGR
47507,Subang Jaya,SGR
47600,Subang Jaya,SGR
47610,Subang Jaya,SGR
47620,Subang Jaya,SGR
47630,Subang Jaya,SGR
47640,Subang Jaya,SGR
47650,Subang Jaya,SGR
47800,Petaling Jaya,SGR
47810,Petaling Jaya,SGR
47820,Petaling Jaya,SGR
47830,Petaling Jaya,SGR
48000,Rawang,SGR
48010,Rawang,SGR
48020,Rawang,SGR
48050,Rawang,SGR
48100,Batu Arang,SGR
48200,Serendah,SGR
48300,Rawang,SGR
49000,Bukit Fraser,PHG
50000,Kuala Lumpur,KUL
50050,Kuala Lumpur,KUL
50088,Kuala Lumpur,KUL
50100,Kuala Lumpur,KUL
50150,Kuala Lumpur,KUL
50200,Kuala Lumpur,KUL
50250,Kuala Lumpur,KUL
50300,Kuala Lumpur,KUL
50350,Kuala Lumpur,KUL
50400,Kuala Lumpur,KUL
50450,Kuala Lumpur,KUL
50460,Kuala Lumpur,KUL
50470,Kuala Lumpur,KUL
50480,Kuala Lumpur,KUL
50490,Kuala Lumpur,KUL
50500,Kuala Lumpur,KUL
50502,Kuala Lumpur,KUL
50504,Kuala Lumpur,KUL
50505,Kuala Lumpur,KUL
50506,Kuala Lumpur,KUL
50507,Kuala Lumpur,KUL
50508,Kuala Lumpur,KUL
50512,Kuala Lumpur,KUL
50514,Kuala Lumpur,KUL
50515,Kuala Lumpur,KUL
50519,Kuala Lumpur,KUL
50528,Kuala Lumpur,KUL
50529,Kuala Lumpur,KUL
50530,Kuala Lumpur,KUL
50532,Kuala Lumpur,KUL
50534,Kuala Lumpur,KUL
50536,Kuala Lumpur,KUL
50540,Kuala Lumpur,KUL
50544,Kuala Lumpur,KUL
50546,Kuala Lumpur,KUL
50548,Kuala Lumpur,KUL
50550,Kuala Lumpur,KUL
50551,Kuala Lumpur,KUL
50552,Kuala Lumpur,KUL
50554,Kuala Lumpur,KUL
50556,Kuala Lumpur,KUL
50560,Kuala Lumpur,KUL
50562,Kuala Lumpur,KUL
50564,Kuala Lumpur,KUL
50566,Kuala Lumpur,KUL
50568,Kuala Lumpur,KUL
50572,Kuala Lumpur,KUL
50576,Kuala Lumpur,KUL
50578,Kuala Lumpur,KUL
50580,Kuala Lumpur,KUL
50582,Kuala Lumpur,KUL
50586,Kuala Lumpur,KUL
50588,Kuala Lumpur,KUL
50590,Kuala Lumpur,KUL
50592,Kuala Lumpur,KUL
50594,Kuala Lumpur,KUL
50596,Kuala Lumpur,KUL
50598,Kuala Lumpur,KUL
50599,Kuala Lumpur,KUL
50600,Kuala Lumpur,KUL
50603,Kuala Lumpur,KUL
50604,Kuala Lumpur,KUL
50605,Kuala Lumpur,KUL
50608,Kuala Lumpur,KUL
50609,Kuala Lumpur,KUL
50610,Kuala Lumpur,KUL
50612,Kuala Lumpur,KUL
50614,Kuala Lumpur,KUL
50620,Kuala Lumpur,KUL
50621,Kuala Lumpur,KUL
50622,Kuala Lumpur,KUL
50623,Kuala Lumpur,KUL
50626,Kuala Lumpur,KUL
50632,Kuala Lumpur,KUL
50634,Kuala Lumpur,KUL
50636,Kuala Lumpur,KUL
50638,Kuala Lumpur,KUL
50640,Kuala Lumpur,KUL
50642,Kuala Lumpur,KUL
50644,Kuala Lumpur,KUL
50646,Kuala Lumpur,KUL
50648,Kuala Lumpur,KUL
50650,Kuala Lumpur,KUL
50652,Kuala Lumpur,KUL
50653,Kuala Lumpur,KUL
50656,Kuala Lumpur,KUL
50658,Kuala Lumpur,KUL
50660,Kuala Lumpur,KUL
50661,Kuala Lumpur,KUL
50662,Kuala Lumpur,KUL
50664,Kuala Lumpur,KUL
50666,Kuala Lumpur,KUL
50668,Kuala Lumpur,KUL
50670,Kuala Lumpur,KUL
50672,Kuala Lumpur,KUL
50673,Kuala Lumpur,KUL
50676,Kuala Lumpur,KUL
50677,Kuala Lumpur,KUL
50678,Kuala Lumpur,KUL
50680,Kuala Lumpur,KUL
50682,Kuala Lumpur,KUL
50684,Kuala Lumpur,KUL
50688,Kuala Lumpur,KUL
50694,Kuala Lumpur,KUL
50700,Kuala Lumpur,KUL
50702,Kuala Lumpur,KUL
50704,Kuala Lumpur,KUL
50706,Kuala Lumpur,KUL
50708,Kuala Lumpur,KUL
50710,Kuala Lumpur,KUL
50712,Kuala Lumpur,KUL
50714,Kuala Lumpur,KUL
50716,Kuala Lumpur,KUL
50718,Kuala Lumpur,KUL
50720,Kuala Lumpur,KUL
50722,Kuala Lumpur,KUL
50724,Kuala Lumpur,KUL
50726,Kuala Lumpur,KUL
50728,Kuala Lumpur,KUL
50730,Kuala Lumpur,KUL
50732,Kuala Lumpur,KUL
50734,Kuala Lumpur,KUL
50736,Kuala Lumpur,KUL
50738,Kuala Lumpur,KUL
50740,Kuala Lumpur,KUL
50742,Kuala Lumpur,KUL
50744,Kuala Lumpur,KUL
50746,Kuala Lumpur,KUL
50748,Kuala Lumpur,KUL
50750,Kuala Lumpur,KUL
50752,Kuala Lumpur,KUL
50754,Kuala Lumpur,KUL
50758,Kuala Lumpur,KUL
50760,Kuala Lumpur,KUL
50762,Kuala Lumpur,KUL
50764,Kuala Lumpur,KUL
50766,Kuala Lumpur,KUL
50768,Kuala Lumpur,KUL
50770,Kuala Lumpur,KUL
50772,Kuala Lumpur,KUL
50774,Kuala Lumpur,KUL
50776,Kuala Lumpur,KUL
50778,Kuala Lumpur,KUL
50780,Kuala Lumpur,KUL
50782,Kuala Lumpur,KUL
50784,Kuala Lumpur,KUL
50786,Kuala Lumpur,KUL
50788,Kuala Lumpur,KUL
50790,Kuala Lumpur,KUL
50792,Kuala Lumpur,KUL
50794,Kuala Lumpur,KUL
50796,Kuala Lumpur,KUL
50798,Kuala Lumpur,KUL
50800,Kuala Lumpur,KUL
50802,Kuala Lumpur,KUL
50804,Kuala Lumpur,KUL
50806,Kuala Lumpur,KUL
50808,Kuala Lumpur,KUL
50810,Kuala Lumpur,KUL
50812,Kuala Lumpur,KUL
50814,Kuala Lumpur,KUL
50816,Kuala Lumpur,KUL
50818,Kuala Lumpur,KUL
50901,Kuala Lumpur,KUL
50902,Kuala Lumpur,KUL
50903,Kuala Lumpur,KUL
50904,Kuala Lumpur,KUL
50906,Kuala Lumpur,KUL
50907,Kuala Lumpur,KUL
50908,Kuala Lumpur,KUL
50909,Kuala Lumpur,KUL
50910,Kuala Lumpur,KUL
50911,Kuala Lumpur,KUL
50912,Kuala Lumpur,KUL
50913,Kuala Lumpur,KUL
50914,Kuala Lumpur,KUL
50915,Kuala Lumpur,KUL
50916,Kuala Lumpur,KUL
50917,Kuala Lumpur,KUL
50918,Kuala Lumpur,KUL
50919,Kuala Lumpur,KUL
50920,Kuala Lumpur,KUL
50921,Kuala Lumpur,KUL
50922,Kuala Lumpur,KUL
50923,Kuala Lumpur,KUL
50924,Kuala Lumpur,KUL
50925,Kuala Lumpur,KUL
50926,Kuala Lumpur,KUL
50927,Kuala Lumpur,KUL
50928,Kuala Lumpur,KUL
50929,Kuala Lumpur,KUL
50930,Kuala Lumpur,KUL
50931,Kuala Lumpur,KUL
50932,Kuala Lumpur,KUL
50933,Kuala Lumpur,KUL
50934,Kuala Lumpur,KUL
50935,Kuala Lumpur,KUL
50936,Kuala Lumpur,KUL
50937,Kuala Lumpur,KUL
50938,Kuala Lumpur,KUL
50939,Kuala Lumpur,KUL
50940,Kuala Lumpur,KUL
50941,Kuala Lumpur,KUL
50942,Kuala Lumpur,KUL
50943,Kuala Lumpur,KUL
50944,Kuala Lumpur,KUL
50945,Kuala Lumpur,KUL
50946,Kuala Lumpur,KUL
50947,Kuala Lumpur,KUL
50948,Kuala Lumpur,KUL
50949,Kuala Lumpur,KUL
50950,Kuala Lumpur,KUL
50988,Kuala Lumpur,KUL
50989,Kuala Lumpur,KUL
50990,Kuala Lumpur,KUL
51000,Kuala Lumpur,KUL
51100,Kuala Lumpur,KUL
51200,Kuala Lumpur,KUL
51700,Kuala Lumpur,KUL
51990,Kuala Lumpur,KUL
52000,Kuala Lumpur,KUL
52100,Kuala Lumpur,KUL
52200,Kuala Lumpur,KUL
53000,Kuala Lumpur,KUL
53100,Kuala Lumpur,KUL
53200,Kuala Lumpur,KUL
53300,Kuala Lumpur,KUL
53700,Kuala Lumpur,KUL
53800,Kuala Lumpur,KUL
53990,Kuala Lumpur,KUL
54000,Kuala Lumpur,KUL
54100,Kuala Lumpur,KUL
54200,Kuala Lumpur,KUL
55000,Kuala Lumpur,KUL
55100,Kuala Lumpur,KUL
55200,Kuala Lumpur,KUL
55300,Kuala Lumpur,KUL
55700,Kuala Lumpur,KUL
55710,Kuala Lumpur,KUL
55720,Kuala Lumpur,KUL
55900,Kuala Lumpur,KUL
55902,Kuala Lumpur,KUL
55904,Kuala Lumpur,KUL
55906,Kuala Lumpur,KUL
55908,Kuala Lumpur,KUL
55910,Kuala Lumpur,KUL
55912,Kuala Lumpur,KUL
55914,Kuala Lumpur,KUL
55916,Kuala Lumpur,KUL
55918,Kuala Lumpur,KUL
55920,Kuala Lumpur,KUL
55922,Kuala Lumpur,KUL
55924,Kuala Lumpur,KUL
55926,Kuala Lumpur,KUL
55928,Kuala Lumpur,KUL
55930,Kuala Lumpur,KUL
55932,Kuala Lumpur,KUL
55934,Kuala Lumpur,KUL
55990,Kuala Lumpur,KUL
56000,Kuala Lumpur,KUL
56100,Kuala Lumpur,KUL
57000,Kuala Lumpur,KUL
57100,Kuala Lumpur,KUL
57700,Kuala Lumpur,KUL
57990,Kuala Lumpur,KUL
58000,Kuala Lumpur,KUL
58100,Kuala Lumpur,KUL
58200,Kuala Lumpur,KUL
58700,Kuala Lumpur,KUL
58990,Kuala Lumpur,KUL
59000,Kuala Lumpur,KUL
59100,Kuala Lumpur,KUL
59200,Kuala Lumpur,KUL
59700,Kuala Lumpur,KUL
59800,Kuala Lumpur,KUL
59990,Kuala Lumpur,KUL
60000,Kuala Lumpur,KUL
62000,Putrajaya,PJY
62007,Putrajaya,PJY
62050,Putrajaya,PJY
62100,Putrajaya,PJY
62150,Putrajaya,PJY
62200,Putrajaya,PJY
62250,Putrajaya,PJY
62300,Putrajaya,PJY
62502,Putrajaya,PJY
62504,Putrajaya,PJY
62505,Putrajaya,PJY
62506,Putrajaya,PJY
62510,Putrajaya,PJY
62512,Putrajaya,PJY
62514,Putrajaya,PJY
62516,Putrajaya,PJY
62517,Putrajaya,PJY
62518,Putrajaya,PJY
62519,Putrajaya,PJY
62520,Putrajaya,PJY
62522,Putrajaya,PJY
62524,Putrajaya,PJY
62526,Putrajaya,PJY
62527,Putrajaya,PJY
62530,Putrajaya,PJY
62532,Putrajaya,PJY
62536,Putrajaya,PJY
62540,Putrajaya,PJY
62542,Putrajaya,PJY
62546,Putrajaya,PJY
62550,Putrajaya,PJY
62551,Putrajaya,PJY
62570,Putrajaya,PJY
62574,Putrajaya,PJY
62576,Putrajaya,PJY
62582,Putrajaya,PJY
62584,Putrajaya,PJY
62590,Putrajaya,PJY
62592,Putrajaya,PJY
62596,Putrajaya,PJY
62602,Putrajaya,PJY
62604,Putrajaya,PJY
62605,Putrajaya,PJY
62606,Putrajaya,PJY
62616,Putrajaya,PJY
62618,Putrajaya,PJY
62620,Putrajaya,PJY
62623,Putrajaya,PJY
62624,Putrajaya,PJY
62628,Putrajaya,PJY
62630,Putrajaya,PJY
62632,Putrajaya,PJY
62648,Putrajaya,PJY
62652,Putrajaya,PJY
62654,Putrajaya,PJY
62662,Putrajaya,PJY
62668,Putrajaya,PJY
62670,Putrajaya,PJY
62674,Putrajaya,PJY
62675,Putrajaya,PJY
62676,Putrajaya,PJY
62677,Putrajaya,PJY
62686,Putrajaya,PJY
62692,Putrajaya,PJY
62988,Putrajaya,PJY
63000,Cyberjaya,SGR
63100,Cyberjaya,SGR
63200,Cyberjaya,SGR
63300,Cyberjaya,SGR
64000,KLIA,SGR
68000,Ampang,SGR
68100,Batu Caves,SGR
69000,Genting Highlands,PHG
70000,Seremban,NSN
70100,Seremban,NSN
70200,Seremban,NSN
70300,Seremban,NSN
70400,Seremban,NSN
70450,Seremban,NSN
70500,Seremban,NSN
70502,Seremban,NSN
70503,Seremban,NSN
70504,Seremban,NSN
70505,Seremban,NSN
70506,Seremban,NSN
70508,Seremban,NSN
70512,Seremban,NSN
70516,Seremban,NSN
70517,Seremban,NSN
70518,Seremban,NSN
70532,Seremban,NSN
70534,Seremban,NSN
70536,Seremban,NSN
70540,Seremban,NSN
70546,Seremban,NSN
70548,Seremban,NSN
70550,Seremban,NSN
70551,Seremban,NSN
70558,Seremban,NSN
70560,Seremban,NSN
70564,Seremban,NSN
70570,Seremban,NSN
70572,Seremban,NSN
70576,Seremban,NSN
70578,Seremban,NSN
70582,Seremban,NSN
70586,Seremban,NSN
70590,Seremban,NSN
70592,Seremban,NSN
70594,Seremban,NSN
70596,Seremban,NSN
70600,Seremban,NSN
70604,Seremban,NSN
70606,Seremban,NSN
70608,Seremban,NSN
70609,Seremban,NSN
70610,Seremban,NSN
70620,Seremban,NSN
70626,Seremban,NSN
70628,Seremban,NSN
70632,Seremban,NSN
70634,Seremban,NSN
70644,Seremban,NSN
70646,Seremban,NSN
70648,Seremban,NSN
70658,Seremban,NSN
70664,Seremban,NSN
70670,Seremban,NSN
70672,Seremban,NSN
70673,Seremban,NSN
70674,Seremban,NSN
70676,Seremban,NSN
70690,Seremban,NSN
70700,Seremban,NSN
70710,Seremban,NSN
70720,Seremban,NSN
70730,Seremban,NSN
70740,Seremban,NSN
70750,Seremban,NSN
70990,Seremban,NSN
71000,Port Dickson,NSN
71007,Port Dickson,NSN
71009,Port Dickson,NSN
71010,Port Dickson,NSN
71050,Si Rusa,NSN
71059,Si Rusa,NSN
71100,Rantau,NSN
71109,Rantau,NSN
71150,Linggi,NSN
71159,Linggi,NSN
71200,Rantau,NSN
71209,Rantau,NSN
71250,Si Rusa,NSN
71259,Si Rusa,NSN
71300,Rembau,NSN
71309,Rembau,NSN
71350,Kota,NSN
71359,Kota,NSN
71400,Rembau,NSN
71409,Rembau,NSN
71450,Seremban,NSN
71459,Seremban,NSN
71500,Tanjong Ipoh,NSN
71509,Tanjong Ipoh,NSN
71550,Tanjong Ipoh,NSN
71559,Tanjong Ipoh,NSN
71600,Kuala Klawang,NSN
71609,Kuala Klawang,NSN
71650,Kuala Klawang,NSN
71659,Kuala Klawang,NSN
71700,Mantin,NSN
71707,Mantin,NSN
71709,Mantin,NSN
71750,Mantin,NSN
71759,Mantin,NSN
71760,Bandar Enstek,NSN
71770,Seremban,NSN
71800,Nilai,NSN
71807,Nilai,NSN
71809,Nilai,NSN
71900,Labu,NSN
71907,Labu,NSN
71909,Labu,NSN
71950,Seremban,NSN
71960,Port Dickson,NSN
72000,Kuala Pilah,NSN
72007,Kuala Pilah,NSN
72009,Kuala Pilah,NSN
72100,Bahau,NSN
72107,Bahau,NSN
72109,Bahau,NSN
72120,Bandar Seri Jempol,NSN
72127,Bandar Seri Jempol,NSN
72129,Bandar Seri Jempol,NSN
72200,Batu Kikir,NSN
72207,Batu Kikir,NSN
72209,Batu Kikir,NSN
72300,Simpang Pertang,NSN
72307,Simpang Pertang,NSN
72309,Simpang Pertang,NSN
72400,Simpang Durian,NSN
72409,Simpang Durian,NSN
72500,Kuala Pilah,NSN
72507,Kuala Pilah,NSN
72509,Kuala Pilah,NSN
73000,Tampin,NSN
73007,Tampin,NSN
73009,Tampin,NSN
73100,Johol,NSN
73109,Johol,NSN
73200,Gemencheh,NSN
73207,Gemencheh,NSN
73209,Gemencheh,NSN
73300,Gemencheh,NSN
73309,Gemencheh,NSN
73400,Gemas,NSN
73409,Gemas,NSN
73420,Gemas,NSN
73430,Pusat Bandar Palong,NSN
73440,Pusat Bandar Palong,NSN
73450,Pusat Bandar Palong,NSN
73460,Pusat Bandar Palong,NSN
73470,Pusat Bandar Palong,NSN
73480,Gemas,NSN
73500,Rompin,NSN
73507,Rompin,NSN
73509,Rompin,NSN
75000,Melaka,MLK
75050,Melaka,MLK
75100,Melaka,MLK
75150,Melaka,MLK
75200,Melaka,MLK
75250,Melaka,MLK
75260,Melaka,MLK
75300,Melaka,MLK
75350,Melaka,MLK
75400,Melaka,MLK
75450,Ayer Keroh,MLK
75460,Melaka,MLK
75500,Melaka,MLK
75502,Melaka,MLK
75503,Melaka,MLK
75504,Melaka,MLK
75505,Melaka,MLK
75506,Melaka,MLK
75508,Melaka,MLK
75510,Melaka,MLK
75512,Melaka,MLK
75514,Melaka,MLK
75516,Melaka,MLK
75517,Melaka,MLK
75518,Melaka,MLK
75519,Melaka,MLK
75532,Melaka,MLK
75536,Melaka,MLK
75538,Melaka,MLK
75540,Melaka,MLK
75542,Melaka,MLK
75546,Melaka,MLK
75550,Melaka,MLK
75551,Melaka,MLK
75552,Melaka,MLK
75560,Melaka,MLK
75564,Melaka,MLK
75566,Melaka,MLK
75570,Melaka,MLK
75572,Melaka,MLK
75576,Melaka,MLK
75578,Melaka,MLK
75582,Melaka,MLK
75584,Melaka,MLK
75586,Melaka,MLK
75590,Melaka,MLK
75592,Melaka,MLK
75594,Melaka,MLK
75596,Melaka,MLK
75600,Melaka,MLK
75604,Melaka,MLK
75606,Melaka,MLK
75608,Melaka,MLK
75609,Melaka,MLK
75610,Melaka,MLK
75612,Melaka,MLK
75618,Melaka,MLK
75620,Melaka,MLK
75622,Melaka,MLK
75626,Melaka,MLK
75628,Melaka,MLK
75630,Melaka,MLK
75632,Melaka,MLK
75646,Melaka,MLK
75648,Melaka,MLK
75662,Melaka,MLK
75670,Melaka,MLK
75672,Melaka,MLK
75673,Melaka,MLK
75674,Melaka,MLK
75676,Melaka,MLK
75690,Melaka,MLK
75700,Melaka,MLK
75710,Melaka,MLK
75720,Melaka,MLK
75730,Melaka,MLK
75740,Melaka,MLK
75750,Melaka,MLK
75760,Melaka,MLK
75900,Melaka,MLK
75902,Melaka,MLK
75904,Melaka,MLK
75906,Melaka,MLK
75908,Melaka,MLK
75910,Melaka,MLK
75912,Melaka,MLK
75914,Melaka,MLK
75916,Melaka,MLK
75918,Melaka,MLK
75990,Melaka,MLK
76100,Durian Tunggal,MLK
76109,Durian Tunggal,MLK
76200,Kem Trendak,MLK
76300,Sungai Udang,MLK
76400,Tanjong Kling,MLK
76409,Tanjong Kling,MLK
76450,Melaka,MLK
77000,Jasin,MLK
77007,Jasin,MLK
77008,Jasin,MLK
77009,Jasin,MLK
77100,Asahan,MLK
77109,Asahan,MLK
77200,Bemban,MLK
77300,Merlimau,MLK
77309,Merlimau,MLK
77400,Sungai Rambai,MLK
77409,Sungai Rambai,MLK
77500,Selandar,MLK
78000,Alor Gajah,MLK
78009,Alor Gajah,MLK
78100,Lubok China,MLK
78200,Kuala Sungai Baru,MLK
78300,Masjid Tanah,MLK
78307,Masjid Tanah,MLK
78309,Masjid Tanah,MLK
79000,Iskandar Puteri,JHR
79050,Iskandar Puteri,JHR
79100,Iskandar Puteri,JHR
79150,Iskandar Puteri,JHR
79200,Iskandar Puteri,JHR
79250,Iskandar Puteri,JHR
79502,Iskandar Puteri,JHR
79503,Iskandar Puteri,JHR
79504,Iskandar Puteri,JHR
79505,Iskandar Puteri,JHR
79511,Iskandar Puteri,JHR
79513,Iskandar Puteri,JHR
79514,Iskandar Puteri,JHR
79517,Iskandar Puteri,JHR
79518,Iskandar Puteri,JHR
79520,Iskandar Puteri,JHR
79521,Iskandar Puteri,JHR
79523,Iskandar Puteri,JHR
79532,Iskandar Puteri,JHR
79538,Iskandar Puteri,JHR
79540,Iskandar Puteri,JHR
79546,Iskandar Puteri,JHR
79548,Iskandar Puteri,JHR
79550,Iskandar Puteri,JHR
79552,Iskandar Puteri,JHR
79555,Iskandar Puteri,JHR
79570,Iskandar Puteri,JHR
79575,Iskandar Puteri,JHR
79576,Iskandar Puteri,JHR
79592,Iskandar Puteri,JHR
79601,Iskandar Puteri,JHR
79603,Iskandar Puteri,JHR
79605,Iskandar Puteri,JHR
79606,Iskandar Puteri,JHR
79612,Iskandar Puteri,JHR
79626,Iskandar Puteri,JHR
79630,Iskandar Puteri,JHR
79632,Iskandar Puteri,JHR
79646,Iskandar Puteri,JHR
79658,Iskandar Puteri,JHR
79660,Iskandar Puteri,JHR
79680,Iskandar Puteri,JHR
79681,Iskandar Puteri,JHR
79683,Iskandar Puteri,JHR
80000,Johor Bahru,JHR
80050,Johor Bahru,JHR
80100,Johor Bahru,JHR
80150,Johor Bahru,JHR
80200,Johor Bahru,JHR
80250,Johor Bahru,JHR
80300,Johor Bahru,JHR
80350,Johor Bahru,JHR
80400,Johor Bahru,JHR
80500,Johor Bahru,JHR
80506,Johor Bahru,JHR
80508,Johor Bahru,JHR
80516,Johor Bahru,JHR
80519,Johor Bahru,JHR
80534,Johor Bahru,JHR
80536,Johor Bahru,JHR
80542,Johor Bahru,JHR
80546,Johor Bahru,JHR
80558,Johor Bahru,JHR
80560,Johor Bahru,JHR
80564,Johor Bahru,JHR
80568,Johor Bahru,JHR
80578,Johor Bahru,JHR
80584,Johor Bahru,JHR
80586,Johor Bahru,JHR
80590,Johor Bahru,JHR
80592,Johor Bahru,JHR
80594,Johor Bahru,JHR
80596,Johor Bahru,JHR
80600,Johor Bahru,JHR
80604,Johor Bahru,JHR
80608,Johor Bahru,JHR
80620,Johor Bahru,JHR
80622,Johor Bahru,JHR
80628,Johor Bahru,JHR
80644,Johor Bahru,JHR
80648,Johor Bahru,JHR
80662,Johor Bahru,JHR
80664,Johor Bahru,JHR
80668,Johor Bahru,JHR
80670,Johor Bahru,JHR
80672,Johor Bahru,JHR
80673,Johor Bahru,JHR
80676,Johor Bahru,JHR
80700,Johor Bahru,JHR
80710,Johor Bahru,JHR
80720,Johor Bahru,JHR
80730,Johor Bahru,JHR
80900,Johor Bahru,JHR
80902,Johor Bahru,JHR
80904,Johor Bahru,JHR
80906,Johor Bahru,JHR
80908,Johor Bahru,JHR
80988,Johor Bahru,JHR
80990,Johor Bahru,JHR
81000,Kulai,JHR
81030,Kulai,JHR
81100,Johor Bahru,JHR
81200,Johor Bahru,JHR
81300,Johor Bahru,JHR
81310,Johor Bahru,JHR
81400,Senai,JHR
81440,Bandar Tenggara,JHR
81450,Gugusan Taib Andak,JHR
81500,Pekan Nenas,JHR
81550,Gelang Patah,JHR
81600,Pengerang,JHR
81700,Pasir Gudang,JHR
81750,Masai,JHR
81800,Ulu Tiram,JHR
81850,Layang-Layang,JHR
81900,Kota Tinggi,JHR
81920,Ayer Tawar 2,JHR
81930,Bandar Penawar,JHR
82000,Pontian,JHR
82100,Ayer Baloi,JHR
82200,Benut,JHR
82300,Kukup,JHR
83000,Batu Pahat,JHR
83010,Batu Pahat,JHR
83100,Rengit,JHR
83200,Senggarang,JHR
83300,Seri Gading,JHR
83400,Seri Medan,JHR
83500,Parit Sulong,JHR
83600,Semerah,JHR
83700,Yong Peng,JHR
84000,Muar,JHR
84150,Parit Jawa,JHR
84200,Muar,JHR
84300,Bukit Pasir,JHR
84400,Sungai Mati,JHR
84500,Panchor,JHR
84600,Pagoh,JHR
84700,Gerisek,JHR
84800,Bukit Gambir,JHR
84900,Tangkak,JHR
85000,Segamat,JHR
85010,Segamat,JHR
85020,Segamat,JHR
85100,Batu Anam,JHR
85200,Jementah,JHR
85300,Labis,JHR
85400,Chaah,JHR
86000,Kluang,JHR
86100,Ayer Hitam,JHR
86200,Simpang Rengam,JHR
86300,Rengam,JHR
86400,Parit Raja,JHR
86500,Bekok,JHR
86600,Paloh,JHR
86700,Kahang,JHR
86800,Mersing,JHR
86810,Mersing,JHR
86900,Endau,JHR
87000,Labuan,LBN
87010,Labuan,LBN
87011,Labuan,LBN
87012,Labuan,LBN
87013,Labuan,LBN
87014,Labuan,LBN
87015,Labuan,LBN
87016,Labuan,LBN
87017,Labuan,LBN
87018,Labuan,LBN
87019,Labuan,LBN
87020,Labuan,LBN
87021,Labuan,LBN
87022,Labuan,LBN
87023,Labuan,LBN
87024,Labuan,LBN
87025,Labuan,LBN
87026,Labuan,LBN
87027,Labuan,LBN
87028,Labuan,LBN
87029,Labuan,LBN
87030,Labuan,LBN
87031,Labuan,LBN
87032,Labuan,LBN
87033,Labuan,LBN
88000,Kota Kinabalu,SBH
88100,Kota Kinabalu,SBH
88200,Kota Kinabalu,SBH
88300,Kota Kinabalu,SBH
88400,Kota Kinabalu,SBH
88450,Kota Kinabalu,SBH
88460,Kota Kinabalu,SBH
88500,Kota Kinabalu,SBH
88502,Kota Kinabalu,SBH
88504,Kota Kinabalu,SBH
88505,Kota Kinabalu,SBH
88506,Kota Kinabalu,SBH
88508,Kota Kinabalu,SBH
88510,Kota Kinabalu,SBH
88512,Kota Kinabalu,SBH
88514,Kota Kinabalu,SBH
88516,Kota Kinabalu,SBH
88518,Kota Kinabalu,SBH
88520,Kota Kinabalu,SBH
88526,Kota Kinabalu,SBH
88527,Kota Kinabalu,SBH
88532,Kota Kinabalu,SBH
88534,Kota Kinabalu,SBH
88538,Kota Kinabalu,SBH
88540,Kota Kinabalu,SBH
88546,Kota Kinabalu,SBH
88550,Kota Kinabalu,SBH
88551,Kota Kinabalu,SBH
88552,Kota Kinabalu,SBH
88554,Kota Kinabalu,SBH
88556,Kota Kinabalu,SBH
88558,Kota Kinabalu,SBH
88560,Kota Kinabalu,SBH
88562,Kota Kinabalu,SBH
88564,Kota Kinabalu,SBH
88566,Kota Kinabalu,SBH
88568,Kota Kinabalu,SBH
88570,Kota Kinabalu,SBH
88572,Kota Kinabalu,SBH
88576,Kota Kinabalu,SBH
88580,Kota Kinabalu,SBH
88582,Kota Kinabalu,SBH
88586,Kota Kinabalu,SBH
88590,Kota Kinabalu,SBH
88592,Kota Kinabalu,SBH
88594,Kota Kinabalu,SBH
88596,Kota Kinabalu,SBH
88598,Kota Kinabalu,SBH
88600,Kota Kinabalu,SBH
88602,Kota Kinabalu,SBH
88604,Kota Kinabalu,SBH
88606,Kota Kinabalu,SBH
88608,Kota Kinabalu,SBH
88609,Kota Kinabalu,SBH
88610,Kota Kinabalu,SBH
88612,Kota Kinabalu,SBH
88614,Kota Kinabalu,SBH
88617,Kota Kinabalu,SBH
88618,Kota Kinabalu,SBH
88620,Kota Kinabalu,SBH
88621,Kota Kinabalu,SBH
88622,Kota Kinabalu,SBH
88624,Kota Kinabalu,SBH
88626,Kota Kinabalu,SBH
88628,Kota Kinabalu,SBH
88630,Kota Kinabalu,SBH
88632,Kota Kinabalu,SBH
88634,Kota Kinabalu,SBH
88644,Kota Kinabalu,SBH
88646,Kota Kinabalu,SBH
88648,Kota Kinabalu,SBH
88656,Kota Kinabalu,SBH
88658,Kota Kinabalu,SBH
88660,Kota Kinabalu,SBH
88661,Kota Kinabalu,SBH
88662,Kota Kinabalu,SBH
88670,Kota Kinabalu,SBH
88672,Kota Kinabalu,SBH
88673,Kota Kinabalu,SBH
88675,Kota Kinabalu,SBH
88676,Kota Kinabalu,SBH
88680,Kota Kinabalu,SBH
88690,Kota Kinabalu,SBH
88700,Beverly,SBH
88721,Putatan,SBH
88722,Putatan,SBH
88723,Putatan,SBH
88724,Putatan,SBH
88725,Putatan,SBH
88757,Kota Kinabalu,SBH
88758,Kota Kinabalu,SBH
88759,Kota Kinabalu,SBH
88760,Kota Kinabalu,SBH
88761,Kota Kinabalu,SBH
88762,Kota Kinabalu,SBH
88763,Kota Kinabalu,SBH
88764,Kota Kinabalu,SBH
88765,Kota Kinabalu,SBH
88766,Kota Kinabalu,SBH
88767,Kota Kinabalu,SBH
88768,Kota Kinabalu,SBH
88769,Kota Kinabalu,SBH
88770,Kota Kinabalu,SBH
88771,Kota Kinabalu,SBH
88772,Kota Kinabalu,SBH
88773,Kota Kinabalu,SBH
88774,Kota Kinabalu,SBH
88775,Kota Kinabalu,SBH
88776,Kota Kinabalu,SBH
88777,Kota Kinabalu,SBH
88778,Kota Kinabalu,SBH
88779,Kota Kinabalu,SBH
88780,Kota Kinabalu,SBH
88781,Kota Kinabalu,SBH
88782,Kota Kinabalu,SBH
88783,Kota Kinabalu,SBH
88784,Kota Kinabalu,SBH
88785,Kota Kinabalu,SBH
88786,Kota Kinabalu,SBH
88787,Kota Kinabalu,SBH
88788,Kota Kinabalu,SBH
88789,Kota Kinabalu,SBH
88790,Kota Kinabalu,SBH
88800,Kota Kinabalu,SBH
88801,Kota Kinabalu,SBH
88802,Kota Kinabalu,SBH
88803,Kota Kinabalu,SBH
88804,Kota Kinabalu,SBH
88805,Kota Kinabalu,SBH
88806,Kota Kinabalu,SBH
88807,Kota Kinabalu,SBH
88808,Kota Kinabalu,SBH
88809,Kota Kinabalu,SBH
88810,Kota Kinabalu,SBH
88811,Kota Kinabalu,SBH
88812,Kota Kinabalu,SBH
88813,Kota Kinabalu,SBH
88814,Kota Kinabalu,SBH
88815,Kota Kinabalu,SBH
88816,Kota Kinabalu,SBH
88817,Kota Kinabalu,SBH
88818,Kota Kinabalu,SBH
88819,Kota Kinabalu,SBH
88820,Kota Kinabalu,SBH
88821,Kota Kinabalu,SBH
88822,Kota Kinabalu,SBH
88823,Kota Kinabalu,SBH
88824,Kota Kinabalu,SBH
88825,Kota Kinabalu,SBH
88826,Kota Kinabalu,SBH
88827,Kota Kinabalu,SBH
88828,Kota Kinabalu,SBH
88829,Kota Kinabalu,SBH
88830,Kota Kinabalu,SBH
88831,Kota Kinabalu,SBH
88832,Kota Kinabalu,SBH
88833,Kota Kinabalu,SBH
88834,Kota Kinabalu,SBH
88835,Kota Kinabalu,SBH
88836,Kota Kinabalu,SBH
88837,Kota Kinabalu,SBH
88838,Kota Kinabalu,SBH
88839,Kota Kinabalu,SBH
88840,Kota Kinabalu,SBH
88841,Kota Kinabalu,SBH
88842,Kota Kinabalu,SBH
88843,Kota Kinabalu,SBH
88844,Kota Kinabalu,SBH
88845,Kota Kinabalu,SBH
88846,Kota Kinabalu,SBH
88847,Kota Kinabalu,SBH
88848,Kota Kinabalu,SBH
88849,Kota Kinabalu,SBH
88850,Kota Kinabalu,SBH
88851,Kota Kinabalu,SBH
88852,Kota Kinabalu,SBH
88853,Kota Kinabalu,SBH
88854,Kota Kinabalu,SBH
88855,Kota Kinabalu,SBH
88856,Likas,SBH
88857,Inanam,SBH
88858,Tanjung Aru,SBH
88860,Kota Kinabalu,SBH
88861,Kota Kinabalu,SBH
88862,Kota Kinabalu,SBH
88863,Kota Kinabalu,SBH
88865,Kota Kinabalu,SBH
88866,Kota Kinabalu,SBH
88867,Kota Kinabalu,SBH
88868,Kota Kinabalu,SBH
88869,Kota Kinabalu,SBH
88870,Kota Kinabalu,SBH
88871,Kota Kinabalu,SBH
88872,Kota Kinabalu,SBH
88873,Kota Kinabalu,SBH
88874,Kota Kinabalu,SBH
88875,Kota Kinabalu,SBH
88900,Kota Kinabalu,SBH
88901,Kota Kinabalu,SBH
88902,Kota Kinabalu,SBH
88903,Kota Kinabalu,SBH
88904,Kota Kinabalu,SBH
88905,Kota Kinabalu,SBH
88906,Kota Kinabalu,SBH
88988,Kota Kinabalu,SBH
88990,Kota Kinabalu,SBH
88991,Kota Kinabalu,SBH
88992,Kota Kinabalu,SBH
88993,Kota Kinabalu,SBH
88994,Kota Kinabalu,SBH
88995,Kota Kinabalu,SBH
88996,Kota Kinabalu,SBH
88997,Kota Kinabalu,SBH
88998,Kota Kinabalu,SBH
88999,Kota Kinabalu,SBH
89000,Keningau,SBH
89007,Keningau,SBH
89008,Keningau,SBH
89009,Keningau,SBH
89050,Kudat,SBH
89057,Kudat,SBH
89058,Kudat,SBH
89059,Kudat,SBH
89100,Kota Marudu,SBH
89107,Kota Marudu,SBH
89108,Kota Marudu,SBH
89109,Kota Marudu,SBH
89130,Kota Marudu,SBH
89137,Kota Marudu,SBH
89138,Kota Marudu,SBH
89139,Kota Marudu,SBH
89150,Kota Belud,SBH
89157,Kota Belud,SBH
89158,Kota Belud,SBH
89159,Kota Belud,SBH
89200,Tuaran,SBH
89207,Tuaran,SBH
89208,Tuaran,SBH
89209,Tuaran,SBH
89250,Tamparuli,SBH
89257,Tamparuli,SBH
89258,Tamparuli,SBH
89259,Tamparuli,SBH
89260,Beverly,SBH
89300,Ranau,SBH
89307,Ranau,SBH
89308,Ranau,SBH
89309,Ranau,SBH
89320,Ranau,SBH
89327,Ranau,SBH
89328,Ranau,SBH
89329,Ranau,SBH
89330,Ranau,SBH
89337,Ranau,SBH
89338,Ranau,SBH
89339,Ranau,SBH
89500,Penampang,SBH
89507,Penampang,SBH
89508,Penampang,SBH
89509,Penampang,SBH
89600,Papar,SBH
89607,Papar,SBH
89608,Papar,SBH
89609,Papar,SBH
89650,Tambunan,SBH
89657,Tambunan,SBH
89658,Tambunan,SBH
89659,Tambunan,SBH
89700,Bongawan,SBH
89707,Bongawan,SBH
89708,Bongawan,SBH
89709,Bongawan,SBH
89720,Membakut,SBH
89727,Membakut,SBH
89728,Membakut,SBH
89729,Membakut,SBH
89740,Kuala Penyu,SBH
89747,Kuala Penyu,SBH
89748,Kuala Penyu,SBH
89749,Kuala Penyu,SBH
89760,Menumbok,SBH
89767,Menumbok,SBH
89768,Menumbok,SBH
89769,Menumbok,SBH
89800,Beaufort,SBH
89807,Beaufort,SBH
89808,Beaufort,SBH
89809,Beaufort,SBH
89850,Sipitang,SBH
89857,Sipitang,SBH
89858,Sipitang,SBH
89859,Sipitang,SBH
89900,Tenom,SBH
89907,Tenom,SBH
89908,Tenom,SBH
89909,Tenom,SBH
89950,Nabawan,SBH
89957,Nabawan,SBH
89958,Nabawan,SBH
89959,Nabawan,SBH
90000,Sandakan,SBH
90009,Sandakan,SBH
90100,Beluran,SBH
90107,Beluran,SBH
90109,Beluran,SBH
90200,Kota Kinabatangan,SBH
90300,Sandakan,SBH
90307,Sandakan,SBH
90400,Pamol,SBH
90700,Sandakan,SBH
90701,Sandakan,SBH
90702,Sandakan,SBH
90703,Sandakan,SBH
90704,Sandakan,SBH
90705,Sandakan,SBH
90706,Sandakan,SBH
90707,Sandakan,SBH
90708,Sandakan,SBH
90709,Sandakan,SBH
90711,Sandakan,SBH
90712,Sandakan,SBH
90713,Sandakan,SBH
90714,Sandakan,SBH
90715,Sandakan,SBH
90716,Sandakan,SBH
90717,Sandakan,SBH
90718,Sandakan,SBH
90719,Sandakan,SBH
90720,Sandakan,SBH
90721,Sandakan,SBH
90722,Sandakan,SBH
90723,Sandakan,SBH
90724,Sandakan,SBH
90725,Sandakan,SBH
90726,Sandakan,SBH
90727,Sandakan,SBH
90728,Sandakan,SBH
90729,Sandakan,SBH
90730,Sandakan,SBH
90731,Sandakan,SBH
90732,Sandakan,SBH
90733,Sandakan,SBH
90734,Sandakan,SBH
90735,Sandakan,SBH
90736,Sandakan,SBH
90737,Sandakan,SBH
90738,Sandakan,SBH
90739,Sandakan,SBH
90740,Sandakan,SBH
90741,Sandakan,SBH
91000,Tawau,SBH
91007,Tawau,SBH
91008,Tawau,SBH
91009,Tawau,SBH
91010,Tawau,SBH
91011,Tawau,SBH
91012,Tawau,SBH
91013,Tawau,SBH
91014,Tawau,SBH
91015,Tawau,SBH
91016,Tawau,SBH
91017,Tawau,SBH
91018,Tawau,SBH
91019,Tawau,SBH
91020,Tawau,SBH
91021,Tawau,SBH
91022,Tawau,SBH
91023,Tawau,SBH
91024,Tawau,SBH
91025,Tawau,SBH
91026,Tawau,SBH
91027,Tawau,SBH
91028,Tawau,SBH
91029,Tawau,SBH
91030,Tawau,SBH
91031,Tawau,SBH
91032,Tawau,SBH
91033,Tawau,SBH
91034,Tawau,SBH
91035,Tawau,SBH
91100,Lahad Datu,SBH
91109,Lahad Datu,SBH
91110,Lahad Datu,SBH
91111,Lahad Datu,SBH
91112,Lahad Datu,SBH
91113,Lahad Datu,SBH
91114,Lahad Datu,SBH
91115,Lahad Datu,SBH
91116,Lahad Datu,SBH
91117,Lahad Datu,SBH
91118,Lahad Datu,SBH
91119,Lahad Datu,SBH
91120,Lahad Datu,SBH
91121,Lahad Datu,SBH
91122,Lahad Datu,SBH
91123,Lahad Datu,SBH
91124,Lahad Datu,SBH
91125,Lahad Datu,SBH
91126,Lahad Datu,SBH
91127,Lahad Datu,SBH
91128,Lahad Datu,SBH
91150,Lahad Datu,SBH
91200,Kunak,SBH
91207,Kunak,SBH
91209,Kunak,SBH
91300,Semporna,SBH
91307,Semporna,SBH
91308,Semporna,SBH
91309,Semporna,SBH
93000,Kuching,SRW
93010,Kuching,SRW
93050,Kuching,SRW
93100,Kuching,SRW
93150,Kuching,SRW
93200,Kuching,SRW
93250,Kuching,SRW
93300,Kuching,SRW
93350,Kuching,SRW
93400,Kuching,SRW
93450,Kuching,SRW
93500,Kuching,SRW
93502,Kuching,SRW
93503,Kuching,SRW
93504,Kuching,SRW
93505,Kuching,SRW
93506,Kuching,SRW
93507,Kuching,SRW
93508,Kuching,SRW
93514,Kuching,SRW
93516,Kuching,SRW
93517,Kuching,SRW
93518,Kuching,SRW
93519,Kuching,SRW
93520,Kuching,SRW
93527,Kuching,SRW
93529,Kuching,SRW
93532,Kuching,SRW
93540,Kuching,SRW
93550,Kuching,SRW
93551,Kuching,SRW
93552,Kuching,SRW
93554,Kuching,SRW
93556,Kuching,SRW
93558,Kuching,SRW
93560,Kuching,SRW
93564,Kuching,SRW
93566,Kuching,SRW
93570,Kuching,SRW
93572,Kuching,SRW
93576,Kuching,SRW
93578,Kuching,SRW
93582,Kuching,SRW
93586,Kuching,SRW
93590,Kuching,SRW
93592,Kuching,SRW
93594,Kuching,SRW
93596,Kuching,SRW
93600,Kuching,SRW
93604,Kuching,SRW
93606,Kuching,SRW
93608,Kuching,SRW
93609,Kuching,SRW
93610,Kuching,SRW
93612,Kuching,SRW
93614,Kuching,SRW
93618,Kuching,SRW
93619,Kuching,SRW
93620,Kuching,SRW
93626,Kuching,SRW
93628,Kuching,SRW
93632,Kuching,SRW
93634,Kuching,SRW
93648,Kuching,SRW
93658,Kuching,SRW
93660,Kuching,SRW
93661,Kuching,SRW
93662,Kuching,SRW
93670,Kuching,SRW
93672,Kuching,SRW
93677,Kuching,SRW
93690,Kuching,SRW
93694,Kuching,SRW
93700,Kuching,SRW
93702,Kuching,SRW
93704,Kuching,SRW
93706,Kuching,SRW
93708,Kuching,SRW
93710,Kuching,SRW
93712,Kuching,SRW
93714,Kuching,SRW
93716,Kuching,SRW
93718,Kuching,SRW
93720,Kuching,SRW
93722,Kuching,SRW
93724,Kuching,SRW
93726,Kuching,SRW
93728,Kuching,SRW
93730,Kuching,SRW
93732,Kuching,SRW
93734,Kuching,SRW
93736,Kuching,SRW
93738,Kuching,SRW
93740,Kuching,SRW
93742,Kuching,SRW
93744,Kuching,SRW
93746,Kuching,SRW
93748,Kuching,SRW
93750,Kuching,SRW
93752,Kuching,SRW
93754,Kuching,SRW
93756,Kuching,SRW
93758,Kuching,SRW
93760,Kuching,SRW
93762,Kuching,SRW
93764,Kuching,SRW
93900,Kuching,SRW
93902,Kuching,SRW
93904,Kuching,SRW
93906,Kuching,SRW
93908,Kuching,SRW
93910,Kuching,SRW
93912,Kuching,SRW
93914,Kuching,SRW
93916,Kuching,SRW
93990,Kuching,SRW
94000,Bau,SRW
94007,Bau,SRW
94009,Bau,SRW
94200,Siburan,SRW
94300,Kota Samarahan,SRW
94500,Lundu,SRW
94507,Lundu,SRW
94509,Lundu,SRW
94600,Asajaya,SRW
94650,Kabong,SRW
94700,Serian,SRW
94707,Serian,SRW
94709,Serian,SRW
94750,Serian,SRW
94760,Serian,SRW
94800,Simunjan,SRW
94807,Simunjan,SRW
94809,Simunjan,SRW
94850,Sebuyau,SRW
94900,Lingga,SRW
94950,Pusa,SRW
95000,Sri Aman,SRW
95007,Sri Aman,SRW
95008,Sri Aman,SRW
95009,Sri Aman,SRW
95300,Roban,SRW
95400,Saratok,SRW
95407,Saratok,SRW
95409,Saratok,SRW
95500,Debak,SRW
95600,Spaoh,SRW
95700,Betong,SRW
95707,Betong,SRW
95709,Betong,SRW
95800,Engkilili,SRW
95900,Lubok Antu,SRW
96000,Sibu,SRW
96007,Sibu,SRW
96008,Sibu,SRW
96009,Sibu,SRW
96100,Sarikei,SRW
96107,Sarikei,SRW
96108,Sarikei,SRW
96109,Sarikei,SRW
96150,Belawai,SRW
96200,Daro,SRW
96250,Matu,SRW
96300,Dalat,SRW
96307,Dalat,SRW
96309,Dalat,SRW
96350,Balingian,SRW
96400,Mukah,SRW
96410,Mukah,SRW
96500,Bintangor,SRW
96507,Bintangor,SRW
96508,Bintangor,SRW
96509,Bintangor,SRW
96600,Julau,SRW
96700,Kanowit,SRW
96707,Kanowit,SRW
96709,Kanowit,SRW
96800,Kapit,SRW
96807,Kapit,SRW
96809,Kapit,SRW
96850,Song,SRW
96900,Belaga,SRW
96950,Belaga,SRW
97000,Bintulu,SRW
97007,Bintulu,SRW
97008,Bintulu,SRW
97009,Bintulu,SRW
97010,Bintulu,SRW
97011,Bintulu,SRW
97012,Bintulu,SRW
97013,Bintulu,SRW
97014,Bintulu,SRW
97015,Bintulu,SRW
97100,Sebauh,SRW
97200,Tatau,SRW
97300,Bintulu,SRW
98000,Miri,SRW
98007,Miri,SRW
98008,Miri,SRW
98009,Miri,SRW
98050,Baram,SRW
98057,Baram,SRW
98058,Baram,SRW
98059,Baram,SRW
98100,Lutong,SRW
98107,Lutong,SRW
98109,Lutong,SRW
98150,Bekenu,SRW
98157,Bekenu,SRW
98159,Bekenu,SRW
98200,Niah,SRW
98300,Long Lama,SRW
98700,Limbang,SRW
98707,Limbang,SRW
98708,Limbang,SRW
98709,Limbang,SRW
98750,Nanga Medamit,SRW
98800,Sundar,SRW
98850,Lawas,SRW
98857,Lawas,SRW
98859,Lawas,SRW
